STARLINK-30410          
1 57841U 23141B   26068.87208601  .00000703  00000+0  35869-4 0  9994
2 57841  53.1598 283.2442 0001393 103.3134 256.8022 15.30191856140351
HAWK-11C                
1 62381U 24247E   26068.51221537  .00009223  00000+0  33290-3 0  9992
2 62381  45.0045 114.8762 0005900 329.7040  30.3502 15.28848020 67743
